{
  "norad_id": 51896,
  "name": "STARLINK-3593",
  "history": [
    {
      "epoch": "2026-03-28T21:33:56.849760",
      "apogee_km": 540.6847253084443,
      "perigee_km": 538.7933779959221,
      "latitude_deg": 16.908468920015473,
      "longitude_deg": 175.86316640023142,
      "semi_major_axis_km": 6917.8760516521825,
      "eccentricity": 0.0001367,
      "inclination_deg": 53.2169,
      "raan_deg": 273.1108,
      "arg_perigee_deg": 89.9377,
      "mean_anomaly_deg": 270.1772,
      "mean_motion_rev_day": 15.08841419
    }
  ]
}